{
  "type": "FeatureCollection",
  "features": [
    {
      "type": "Feature",
      "properties": {
        "norad_id": 33860,
        "name": "IRIDIUM 33 DEB",
        "group": "iridium-33-debris",
        "lat": 83.74876580864888,
        "lon": 61.8688690936047,
        "alt_km": 662.151673791831,
        "timestamp": "2025-12-14T03:55:53.172339+00:00",
        "meta_object_name": "IRIDIUM 33 DEB",
        "meta_object_id": "1997-051AD",
        "meta_epoch": "2025-12-13T03:14:30.132672",
        "meta_mean_motion": 14.67378607,
        "meta_eccentricity": 0.00074226,
        "meta_inclination": 86.384,
        "meta_ra_of_asc_node": 27.0632,
        "meta_arg_of_pericenter": 356.3471,
        "meta_mean_anomaly": 57.6015,
        "meta_ephemeris_type": 0,
        "meta_classification_type": "U",
        "meta_norad_cat_id": 33860,
        "meta_element_set_no": 999,
        "meta_rev_at_epoch": 88728,
        "meta_bstar": 0.0017412882,
        "meta_mean_motion_dot": 9.869e-05,
        "meta_mean_motion_ddot": 0,
        "tle_line1": "1 33860U 97051AD  25347.13507098  .00009869  00000+0  17413-2 0  9995",
        "tle_line2": "2 33860  86.3840  27.0632 0007422 356.3471  57.6015 14.67378607887281"
      },
      "geometry": {
        "type": "Point",
        "coordinates": [
          61.8688690936047,
          83.74876580864888
        ]
      }
    },
    {
      "type": "Feature",
      "properties": {
        "norad_id": 33862,
        "name": "IRIDIUM 33 DEB",
        "group": "iridium-33-debris",
        "lat": 48.31022378360276,
        "lon": -147.1405135051367,
        "alt_km": 643.6353360966386,
        "timestamp": "2025-12-14T03:55:53.172350+00:00",
        "meta_object_name": "IRIDIUM 33 DEB",
        "meta_object_id": "1997-051AF",
        "meta_epoch": "2025-12-13T04:44:07.482912",
        "meta_mean_motion": 14.69492259,
        "meta_eccentricity": 0.00534134,
        "meta_inclination": 86.4094,
        "meta_ra_of_asc_node": 37.3283,
        "meta_arg_of_pericenter": 67.6393,
        "meta_mean_anomaly": 353.626,
        "meta_ephemeris_type": 0,
        "meta_classification_type": "U",
        "meta_norad_cat_id": 33862,
        "meta_element_set_no": 999,
        "meta_rev_at_epoch": 88830,
        "meta_bstar": 0.0020464006,
        "meta_mean_motion_dot": 0.0001243,
        "meta_mean_motion_ddot": 0,
        "tle_line1": "1 33862U 97051AF  25347.19730883  .00012430  00000+0  20464-2 0  9991",
        "tle_line2": "2 33862  86.4094  37.3283 0053413  67.6393 353.6260 14.69492259888304"
      },
      "geometry": {
        "type": "Point",
        "coordinates": [
          -147.1405135051367,
          48.31022378360276
        ]
      }
    },
    {
      "type": "Feature",
      "properties": {
        "norad_id": 33866,
        "name": "IRIDIUM 33 DEB",
        "group": "iridium-33-debris",
        "lat": -30.037280760907755,
        "lon": 90.2885357428236,
        "alt_km": 895.2496717404701,
        "timestamp": "2025-12-14T03:55:53.172362+00:00",
        "meta_object_name": "IRIDIUM 33 DEB",
        "meta_object_id": "1997-051AK",
        "meta_epoch": "2025-12-13T06:27:14.821920",
        "meta_mean_motion": 14.25279242,
        "meta_eccentricity": 0.01145091,
        "meta_inclination": 86.2997,
        "meta_ra_of_asc_node": 92.8116,
        "meta_arg_of_pericenter": 159.7258,
        "meta_mean_anomaly": 261.3085,
        "meta_ephemeris_type": 0,
        "meta_classification_type": "U",
        "meta_norad_cat_id": 33866,
        "meta_element_set_no": 999,
        "meta_rev_at_epoch": 86818,
        "meta_bstar": 0.0010855955,
        "meta_mean_motion_dot": 2.754e-05,
        "meta_mean_motion_ddot": 0,
        "tle_line1": "1 33866U 97051AK  25347.26892155  .00002754  00000+0  10856-2 0  9996",
        "tle_line2": "2 33866  86.2997  92.8116 0114509 159.7258 261.3085 14.25279242868187"
      },
      "geometry": {
        "type": "Point",
        "coordinates": [
          90.2885357428236,
          -30.037280760907755
        ]
      }
    },
    {
      "type": "Feature",
      "properties": {
        "norad_id": 33867,
        "name": "IRIDIUM 33 DEB",
        "group": "iridium-33-debris",
        "lat": 21.445735192673787,
        "lon": -9.203523875553282,
        "alt_km": 352.00993421024214,
        "timestamp": "2025-12-14T03:55:53.172373+00:00",
        "meta_object_name": "IRIDIUM 33 DEB",
        "meta_object_id": "1997-051AL",
        "meta_epoch": "2025-12-13T00:17:57.337152",
        "meta_mean_motion": 15.68448649,
        "meta_eccentricity": 0.00133514,
        "meta_inclination": 86.3647,
        "meta_ra_of_asc_node": 349.9645,
        "meta_arg_of_pericenter": 88.5689,
        "meta_mean_anomaly": 271.711,
        "meta_ephemeris_type": 0,
        "meta_classification_type": "U",
        "meta_norad_cat_id": 33867,
        "meta_element_set_no": 999,
        "meta_rev_at_epoch": 89515,
        "meta_bstar": 0.0092270239,
        "meta_mean_motion_dot": 0.01147185,
        "meta_mean_motion_ddot": 0,
        "tle_line1": "1 33867U 97051AL  25347.01246918  .01147185  00000+0  92270-2 0  9999",
        "tle_line2": "2 33867  86.3647 349.9645 0013351  88.5689 271.7110 15.68448649895152"
      },
      "geometry": {
        "type": "Point",
        "coordinates": [
          -9.203523875553282,
          21.445735192673787
        ]
      }
    },
    {
      "type": "Feature",
      "properties": {
        "norad_id": 33870,
        "name": "IRIDIUM 33 DEB",
        "group": "iridium-33-debris",
        "lat": 5.929975594974156,
        "lon": -122.72690422640115,
        "alt_km": 726.1203027154525,
        "timestamp": "2025-12-14T03:55:53.172384+00:00",
        "meta_object_name": "IRIDIUM 33 DEB",
        "meta_object_id": "1997-051AP",
        "meta_epoch": "2025-12-13T05:48:32.308704",
        "meta_mean_motion": 14.4585808,
        "meta_eccentricity": 0.00215266,
        "meta_inclination": 86.3747,
        "meta_ra_of_asc_node": 58.0454,
        "meta_arg_of_pericenter": 176.4535,
        "meta_mean_anomaly": 242.6434,
        "meta_ephemeris_type": 0,
        "meta_classification_type": "U",
        "meta_norad_cat_id": 33870,
        "meta_element_set_no": 999,
        "meta_rev_at_epoch": 88144,
        "meta_bstar": 0.001264841,
        "meta_mean_motion_dot": 4.523e-05,
        "meta_mean_motion_ddot": 0,
        "tle_line1": "1 33870U 97051AP  25347.24204061  .00004523  00000+0  12648-2 0  9999",
        "tle_line2": "2 33870  86.3747  58.0454 0021526 176.4535 242.6434 14.45858080881444"
      },
      "geometry": {
        "type": "Point",
        "coordinates": [
          -122.72690422640115,
          5.929975594974156
        ]
      }
    },
    {
      "type": "Feature",
      "properties": {
        "norad_id": 33881,
        "name": "IRIDIUM 33 DEB",
        "group": "iridium-33-debris",
        "lat": 82.5830428850285,
        "lon": -102.92209905852023,
        "alt_km": 684.0530720926163,
        "timestamp": "2025-12-14T03:55:53.172395+00:00",
        "meta_object_name": "IRIDIUM 33 DEB",
        "meta_object_id": "1997-051BA",
        "meta_epoch": "2025-12-12T20:44:34.160064",
        "meta_mean_motion": 14.56580115,
        "meta_eccentricity": 0.00614774,
        "meta_inclination": 86.386,
        "meta_ra_of_asc_node": 106.688,
        "meta_arg_of_pericenter": 174.2575,
        "meta_mean_anomaly": 312.8923,
        "meta_ephemeris_type": 0,
        "meta_classification_type": "U",
        "meta_norad_cat_id": 33881,
        "meta_element_set_no": 999,
        "meta_rev_at_epoch": 87502,
        "meta_bstar": 0.0029090171,
        "meta_mean_motion_dot": 0.00013329,
        "meta_mean_motion_ddot": 0,
        "tle_line1": "1 33881U 97051BA  25346.86428426  .00013329  00000+0  29090-2 0  9994",
        "tle_line2": "2 33881  86.3860 106.6880 0061477 174.2575 312.8923 14.56580115875027"
      },
      "geometry": {
        "type": "Point",
        "coordinates": [
          -102.92209905852023,
          82.5830428850285
        ]
      }
    },
    {
      "type": "Feature",
      "properties": {
        "norad_id": 33884,
        "name": "IRIDIUM 33 DEB",
        "group": "iridium-33-debris",
        "lat": 29.296018621758133,
        "lon": -172.86491868175216,
        "alt_km": 642.7358612313901,
        "timestamp": "2025-12-14T03:55:53.172407+00:00",
        "meta_object_name": "IRIDIUM 33 DEB",
        "meta_object_id": "1997-051BD",
        "meta_epoch": "2025-12-13T01:29:50.844192",
        "meta_mean_motion": 14.77439529,
        "meta_eccentricity": 0.00097723,
        "meta_inclination": 86.3705,
        "meta_ra_of_asc_node": 9.673,
        "meta_arg_of_pericenter": 322.5896,
        "meta_mean_anomaly": 93.5713,
        "meta_ephemeris_type": 0,
        "meta_classification_type": "U",
        "meta_norad_cat_id": 33884,
        "meta_element_set_no": 999,
        "meta_rev_at_epoch": 88852,
        "meta_bstar": 0.0019383044,
        "meta_mean_motion_dot": 0.00013847,
        "meta_mean_motion_ddot": 0,
        "tle_line1": "1 33884U 97051BD  25347.06239403  .00013847  00000+0  19383-2 0  9994",
        "tle_line2": "2 33884  86.3705   9.6730 0009772 322.5896  93.5713 14.77439529888522"
      },
      "geometry": {
        "type": "Point",
        "coordinates": [
          -172.86491868175216,
          29.296018621758133
        ]
      }
    }
  ]
}